%YAML 1.1
%TAG !u! tag:unity3d.com,2011:
--- !u!114 &11400000
MonoBehaviour:
  m_ObjectHideFlags: 0
  m_CorrespondingSourceObject: {fileID: 0}
  m_PrefabInstance: {fileID: 0}
  m_PrefabAsset: {fileID: 0}
  m_GameObject: {fileID: 0}
  m_Enabled: 1
  m_EditorHideFlags: 0
  m_Script: {fileID: 11500000, guid: 3c3c350472192c149822725a54cc75ed, type: 3}
  m_Name: Ganymede
  m_EditorClassIdentifier: 
  mass: 1.4819e+23
  diameter: 5268200
  orbit:
    semimajorAxis: 1070400000
    eccentricity: 0.001
    inclination: 0.003490658504
    lonAscNode: 1.021017612
    argPeriapsis: 3.460987907
    trueAnomaly: 5.660682663
    meanAnomaly: 0
    anomaly: 0
    semiminorAxis: 0
    meanMotion: 0
    semiLatusRectum: 0
    timeToPeriapsis: 0
    period: 0
  material: {fileID: 2100000, guid: 28fa11fe1d468e74ca0a2e8efbb7471b, type: 2}
  bodiesOnOrbit: []
  type: 2
